{"type": "FeatureCollection", "features": [ {"type": "Feature", "properties": {"norad_id": 66660, "name": "K-HERO", "group": "last-30-days", "lat": 76.3542655527359, "lon": -122.5992604610942, "alt_km": 589.1878373183363, "timestamp": "2025-12-10T04:57:28.367478+00:00", "meta": {"OBJECT_NAME": "K-HERO", "OBJECT_ID": "2025-274L", "EPOCH": "2025-12-09T17:20:46.755168", "MEAN_MOTION": 14.92933299, "ECCENTRICITY": 0.001288, "INCLINATION": 97.7389, "RA_OF_ASC_NODE": 270.9915, "ARG_OF_PERICENTER": 292.2854, "MEAN_ANOMALY": 67.6999, "EPHEMERIS_TYPE": 0, "CLASSIFICATION_TYPE": "U", "NORAD_CAT_ID": 66660, "ELEMENT_SET_NO": 999, "REV_AT_EPOCH": 195, "BSTAR": 0.00048182, "MEAN_MOTION_DOT": 4.952e-05, "MEAN_MOTION_DDOT": 0}, "tle": {"line1": "1 66660U 25274L   25343.72276337  .00004952  00000+0  48182-3 0  9993", "line2": "2 66660  97.7389 270.9915 0012880 292.2854  67.6999 14.92933299  1955"}}, "geometry": {"type": "Point", "coordinates": [-122.5992604610942, 76.3542655527359]}}, {"type": "Feature", "properties": {"norad_id": 66661, "name": "SNUGLITE-III", "group": "last-30-days", "lat": 81.31649330252003, "lon": -151.45294067667643, "alt_km": 589.4101100268517, "timestamp": "2025-12-10T04:57:28.367489+00:00", "meta": {"OBJECT_NAME": "SNUGLITE-III", "OBJECT_ID": "2025-274M", "EPOCH": "2025-12-09T18:55:23.032992", "MEAN_MOTION": 14.930742, "ECCENTRICITY": 0.0013538, "INCLINATION": 97.7388, "RA_OF_ASC_NODE": 271.0589, "ARG_OF_PERICENTER": 293.1424, "MEAN_ANOMALY": 66.8369, "EPHEMERIS_TYPE": 0, "CLASSIFICATION_TYPE": "U", "NORAD_CAT_ID": 66661, "ELEMENT_SET_NO": 999, "REV_AT_EPOCH": 196, "BSTAR": 0.00034803, "MEAN_MOTION_DOT": 3.574e-05, "MEAN_MOTION_DDOT": 0}, "tle": {"line1": "1 66661U 25274M   25343.78846103  .00003574  00000+0  34803-3 0  9998", "line2": "2 66661  97.7388 271.0589 0013538 293.1424  66.8369 14.93074200  1960"}}, "geometry": {"type": "Point", "coordinates": [-151.45294067667643, 81.31649330252003]}}, {"type": "Feature", "properties": {"norad_id": 66662, "name": "2025-274N", "group": "last-30-days", "lat": 82.18661684689536, "lon": -170.8459065188127, "alt_km": 589.7142303739038, "timestamp": "2025-12-10T04:57:28.367501+00:00", "meta": {"OBJECT_NAME": "2025-274N", "OBJECT_ID": "2025-274N", "EPOCH": "2025-12-09T18:54:37.484640", "MEAN_MOTION": 14.93123302, "ECCENTRICITY": 0.0013923, "INCLINATION": 97.7389, "RA_OF_ASC_NODE": 271.0599, "ARG_OF_PERICENTER": 292.4731, "MEAN_ANOMALY": 67.5014, "EPHEMERIS_TYPE": 0, "CLASSIFICATION_TYPE": "U", "NORAD_CAT_ID": 66662, "ELEMENT_SET_NO": 999, "REV_AT_EPOCH": 196, "BSTAR": 0.00033954, "MEAN_MOTION_DOT": 3.49e-05, "MEAN_MOTION_DDOT": 0}, "tle": {"line1": "1 66662U 25274N   25343.78793385  .00003490  00000+0  33954-3 0  9995", "line2": "2 66662  97.7389 271.0599 0013923 292.4731  67.5014 14.93123302  1967"}}, "geometry": {"type": "Point", "coordinates": [-170.8459065188127, 82.18661684689536]}}, {"type": "Feature", "properties": {"norad_id": 66663, "name": "KSLV-II R/B", "group": "last-30-days", "lat": -65.47837891504844, "lon": -71.0813308128728, "alt_km": 554.0334247602896, "timestamp": "2025-12-10T04:57:28.367511+00:00", "meta": {"OBJECT_NAME": "KSLV-II R/B", "OBJECT_ID": "2025-274P", "EPOCH": "2025-12-09T08:24:04.565376", "MEAN_MOTION": 14.97241242, "ECCENTRICITY": 0.0050162, "INCLINATION": 97.7404, "RA_OF_ASC_NODE": 270.7232, "ARG_OF_PERICENTER": 331.3188, "MEAN_ANOMALY": 28.5276, "EPHEMERIS_TYPE": 0, "CLASSIFICATION_TYPE": "U", "NORAD_CAT_ID": 66663, "ELEMENT_SET_NO": 999, "REV_AT_EPOCH": 190, "BSTAR": 0.00033078, "MEAN_MOTION_DOT": 3.867e-05, "MEAN_MOTION_DDOT": 0}, "tle": {"line1": "1 66663U 25274P   25343.35005284  .00003867  00000+0  33078-3 0  9998", "line2": "2 66663  97.7404 270.7232 0050162 331.3188  28.5276 14.97241242  1900"}}, "geometry": {"type": "Point", "coordinates": [-71.0813308128728, -65.47837891504844]}}, {"type": "Feature", "properties": {"norad_id": 66664, "name": "SOYUZ-MS 28", "group": "last-30-days", "lat": -47.811879109437314, "lon": 94.0800127287236, "alt_km": 421.72758792657623, "timestamp": "2025-12-10T04:57:28.367522+00:00", "meta": {"OBJECT_NAME": "SOYUZ-MS 28", "OBJECT_ID": "2025-275A", "EPOCH": "2025-12-09T12:14:10.838688", "MEAN_MOTION": 15.49447168, "ECCENTRICITY": 0.00034, "INCLINATION": 51.631, "RA_OF_ASC_NODE": 158.4724, "ARG_OF_PERICENTER": 223.8185, "MEAN_ANOMALY": 136.2534, "EPHEMERIS_TYPE": 0, "CLASSIFICATION_TYPE": "U", "NORAD_CAT_ID": 66664, "ELEMENT_SET_NO": 999, "REV_AT_EPOCH": 194, "BSTAR": 0.00026026, "MEAN_MOTION_DOT": 0.00014141, "MEAN_MOTION_DDOT": 0}, "tle": {"line1": "1 66664U 25275A   25343.50984767  .00014141  00000+0  26026-3 0  9991", "line2": "2 66664  51.6310 158.4724 0003400 223.8185 136.2534 15.49447168  1940"}}, "geometry": {"type": "Point", "coordinates": [94.0800127287236, -47.811879109437314]}}, {"type": "Feature", "properties": {"norad_id": 66820, "name": "KOMPSAT-7", "group": "last-30-days", "lat": 5.417380131254299, "lon": -70.6058638393176, "alt_km": 578.9272574844363, "timestamp": "2025-12-10T04:57:28.367534+00:00", "meta": {"OBJECT_NAME": "KOMPSAT-7", "OBJECT_ID": "2025-279A", "EPOCH": "2025-12-09T14:30:32.266368", "MEAN_MOTION": 14.98378319, "ECCENTRICITY": 0.00094634, "INCLINATION": 97.6403, "RA_OF_ASC_NODE": 289.534, "ARG_OF_PERICENTER": 231.7406, "MEAN_ANOMALY": 128.2966, "EPHEMERIS_TYPE": 0, "CLASSIFICATION_TYPE": "U", "NORAD_CAT_ID": 66820, "ELEMENT_SET_NO": 999, "REV_AT_EPOCH": 118, "BSTAR": 0.00038973743, "MEAN_MOTION_DOT": 4.593e-05, "MEAN_MOTION_DDOT": 0}, "tle": {"line1": "1 66820U 25279A   25343.60454012  .00004593  00000+0  38974-3 0  9990", "line2": "2 66820  97.6403 289.5340 0009463 231.7406 128.2966 14.98378319  1186"}}, "geometry": {"type": "Point", "coordinates": [-70.6058638393176, 5.417380131254299]}}, {"type": "Feature", "properties": {"norad_id": 66877, "name": "ZQ-3 R/B", "group": "last-30-days", "lat": 3.8042051105653116, "lon": 69.8052095149913, "alt_km": 1196.931092184841, "timestamp": "2025-12-10T04:57:28.367545+00:00", "meta": {"OBJECT_NAME": "ZQ-3 R/B", "OBJECT_ID": "2025-282A", "EPOCH": "2025-12-09T14:03:36.956160", "MEAN_MOTION": 14.50884242, "ECCENTRICITY": 0.0814789, "INCLINATION": 56.9538, "RA_OF_ASC_NODE": 69.6744, "ARG_OF_PERICENTER": 214.5064, "MEAN_ANOMALY": 140.0407, "EPHEMERIS_TYPE": 0, "CLASSIFICATION_TYPE": "U", "NORAD_CAT_ID": 66877, "ELEMENT_SET_NO": 999, "REV_AT_EPOCH": 93, "BSTAR": 0.00027722, "MEAN_MOTION_DOT": 0.01312735, "MEAN_MOTION_DDOT": 7.3328e-06}, "tle": {"line1": "1 66877U 25282A   25343.58584440  .01312735  73328-5  27722-3 0  9991", "line2": "2 66877  56.9538  69.6744 0814789 214.5064 140.0407 14.50884242   933"}}, "geometry": {"type": "Point", "coordinates": [69.8052095149913, 3.8042051105653116]}}, {"type": "Feature", "properties": {"norad_id": 66906, "name": "1998-067XS", "group": "last-30-days", "lat": -37.042924744774275, "lon": 118.25297145341348, "alt_km": 421.0469744546199, "timestamp": "2025-12-10T04:57:28.367555+00:00", "meta": {"OBJECT_NAME": "1998-067XS", "OBJECT_ID": "1998-067XS", "EPOCH": "2025-12-09T12:09:24.113376", "MEAN_MOTION": 15.50312686, "ECCENTRICITY": 0.00039811, "INCLINATION": 51.63, "RA_OF_ASC_NODE": 158.4502, "ARG_OF_PERICENTER": 188.2752, "MEAN_ANOMALY": 171.8172, "EPHEMERIS_TYPE": 0, "CLASSIFICATION_TYPE": "U", "NORAD_CAT_ID": 66906, "ELEMENT_SET_NO": 999, "REV_AT_EPOCH": 111, "BSTAR": 0.00059211588, "MEAN_MOTION_DOT": 0.00033864, "MEAN_MOTION_DDOT": 0}, "tle": {"line1": "1 66906U 98067XS  25343.50652909  .00033864  00000+0  59212-3 0  9995", "line2": "2 66906  51.6300 158.4502 0003981 188.2752 171.8172 15.50312686  1110"}}, "geometry": {"type": "Point", "coordinates": [118.25297145341348, -37.042924744774275]}}, {"type": "Feature", "properties": {"norad_id": 66907, "name": "1998-067XT", "group": "last-30-days", "lat": -31.53545586238943, "lon": 125.87067494263529, "alt_km": 418.60052354905474, "timestamp": "2025-12-10T04:57:28.367568+00:00", "meta": {"OBJECT_NAME": "1998-067XT", "OBJECT_ID": "1998-067XT", "EPOCH": "2025-12-09T12:07:37.114752", "MEAN_MOTION": 15.50864429, "ECCENTRICITY": 0.00048036, "INCLINATION": 51.6307, "RA_OF_ASC_NODE": 158.4423, "ARG_OF_PERICENTER": 208.5081, "MEAN_ANOMALY": 151.5646, "EPHEMERIS_TYPE": 0, "CLASSIFICATION_TYPE": "U", "NORAD_CAT_ID": 66907, "ELEMENT_SET_NO": 999, "REV_AT_EPOCH": 111, "BSTAR": 0.0012921241, "MEAN_MOTION_DOT": 0.00076342, "MEAN_MOTION_DDOT": 0}, "tle": {"line1": "1 66907U 98067XT  25343.50529068  .00076342  00000+0  12921-2 0  9998", "line2": "2 66907  51.6307 158.4423 0004803 208.5081 151.5646 15.50864429  1113"}}, "geometry": {"type": "Point", "coordinates": [125.87067494263529, -31.53545586238943]}}, {"type": "Feature", "properties": {"norad_id": 66908, "name": "1998-067XU", "group": "last-30-days", "lat": -30.677186226890637, "lon": 126.9238068003607, "alt_km": 418.5956168002058, "timestamp": "2025-12-10T04:57:28.367578+00:00", "meta": {"OBJECT_NAME": "1998-067XU", "OBJECT_ID": "1998-067XU", "EPOCH": "2025-12-09T18:18:28.282176", "MEAN_MOTION": 15.50948128, "ECCENTRICITY": 0.0005009, "INCLINATION": 51.6303, "RA_OF_ASC_NODE": 157.1615, "ARG_OF_PERICENTER": 208.2103, "MEAN_ANOMALY": 151.8616, "EPHEMERIS_TYPE": 0, "CLASSIFICATION_TYPE": "U", "NORAD_CAT_ID": 66908, "ELEMENT_SET_NO": 999, "REV_AT_EPOCH": 115, "BSTAR": 0.0013388, "MEAN_MOTION_DOT": 0.00079389, "MEAN_MOTION_DDOT": 0}, "tle": {"line1": "1 66908U 98067XU  25343.76282734  .00079389  00000+0  13388-2 0  9995", "line2": "2 66908  51.6303 157.1615 0005009 208.2103 151.8616 15.50948128  1153"}}, "geometry": {"type": "Point", "coordinates": [126.9238068003607, -30.677186226890637]}}]}